JILIN-1 GAOFEN 03D51    
1 54252U 22155B   26202.65126073  .00055179  00000+0  55259-3 0  9990
2 54252  97.6267 350.2021 0004701 209.3541 150.7455 15.65380096205137
JILIN-1 GAOFEN 03D53    
1 54253U 22155C   26202.60909662  .00035844  00000+0  53990-3 0  9996
2 54253  97.6256 345.2490 0005260 225.5529 134.5295 15.54716318204833
JILIN-1 GAOFEN 03D52    
1 54255U 22155E   26202.58733632  .00050546  00000+0  56771-3 0  9993
2 54255  97.6241 348.3121 0004110 222.8255 137.2683 15.62473978205072
JILIN-1 GAOFEN 03D50    
1 54690U 22167J   26202.61654081  .00010203  00000+0  30144-3 0  9995
2 54690  97.6864  11.8894 0004651 359.6473   0.4766 15.35148824200635
JILIN-1 GAOFEN 03D47    
1 54692U 22167L   26202.62344344  .00008892  00000+0  26902-3 0  9994
2 54692  97.6961  13.6356 0007245   7.8560 352.2794 15.34425102200623
JILIN-1 GAOFEN 03D49    
1 54694U 22167N   26202.62360097  .00010631  00000+0  28526-3 0  9997
2 54694  97.6838  14.3196 0005538  29.4095 330.7460 15.38141056200789
JILIN-1 GAOFEN 03D48    
1 54695U 22167P   26202.60602067  .00010169  00000+0  29345-3 0  9998
2 54695  97.6910  13.6104 0005849   8.1380 351.9956 15.35882349200675
JILIN GAOFEN OBJECT A   
1 68691U 26080A   26202.63136388  .00004573  00000+0  29114-3 0  9994
2 68691  97.6606 278.1015 0010825 310.5331  49.4954 15.09236821 14852
JILIN GAOFEN OBJECT B   
1 68692U 26080B   26202.54832949  .00004371  00000+0  28032-3 0  9995
2 68692  97.6583 278.0277 0015480 289.8050  70.1509 15.08939015 14844
JILIN GAOFEN OBJECT D   
1 68694U 26080D   26202.61522014  .00004368  00000+0  27965-3 0  9994
2 68694  97.6647 278.1742 0016077 301.7143  58.2518 15.08998241 14837
JILIN GAOFEN OBJECT E   
1 68695U 26080E   26202.59707001  .00003879  00000+0  24929-3 0  9996
2 68695  97.6627 278.1746 0013274 312.7393  47.2718 15.08958238 14815
JILIN GAOFEN OBJECT F   
1 68696U 26080F   26202.59615988  .00003864  00000+0  24858-3 0  9994
2 68696  97.6598 278.1395 0011947 315.6216  44.4054 15.08942148 14819
JILIN GAOFEN OBJECT G   
1 68697U 26080G   26202.64858837  .00003959  00000+0  25450-3 0  9997
2 68697  97.6639 278.2798 0014262 311.2662  48.7337 15.08932187 14828
JILIN GAOFEN OBJECT H   
1 68698U 26080H   26202.64644160  .00003618  00000+0  23270-3 0  9990
2 68698  97.6623 278.2673 0014572 313.2069  46.7941 15.08960795 14826
