{"fetched_at":"2026-07-22T07:09:50.681Z","source":"https://celestrak.org/NORAD/elements/gp.php?NAME=JILIN&FORMAT=JSON","constellation":"jilin-1-gaofen","records":[{"OBJECT_NAME":"JILIN-1 GAOFEN 03D51","OBJECT_ID":"2022-155B","EPOCH":"2026-07-21T15:37:48.927072","CLASSIFICATION_TYPE":"U","MEAN_MOTION":15.65380096,"ECCENTRICITY":0.00047015,"INCLINATION":97.6267,"RA_OF_ASC_NODE":350.2021,"ARG_OF_PERICENTER":209.3541,"MEAN_ANOMALY":150.7455,"EPHEMERIS_TYPE":0,"NORAD_CAT_ID":54252,"ELEMENT_SET_NO":999,"REV_AT_EPOCH":20513,"BSTAR":0.00055258891,"MEAN_MOTION_DOT":0.00055179,"MEAN_MOTION_DDOT":0},{"OBJECT_NAME":"JILIN-1 GAOFEN 03D53","OBJECT_ID":"2022-155C","EPOCH":"2026-07-21T14:37:05.947968","CLASSIFICATION_TYPE":"U","MEAN_MOTION":15.54716318,"ECCENTRICITY":0.00052602,"INCLINATION":97.6256,"RA_OF_ASC_NODE":345.249,"ARG_OF_PERICENTER":225.5529,"MEAN_ANOMALY":134.5295,"EPHEMERIS_TYPE":0,"NORAD_CAT_ID":54253,"ELEMENT_SET_NO":999,"REV_AT_EPOCH":20483,"BSTAR":0.00053990122,"MEAN_MOTION_DOT":0.00035844,"MEAN_MOTION_DDOT":0},{"OBJECT_NAME":"JILIN-1 GAOFEN 03D52","OBJECT_ID":"2022-155E","EPOCH":"2026-07-21T14:05:45.858048","CLASSIFICATION_TYPE":"U","MEAN_MOTION":15.62473978,"ECCENTRICITY":0.00041105,"INCLINATION":97.6241,"RA_OF_ASC_NODE":348.3121,"ARG_OF_PERICENTER":222.8255,"MEAN_ANOMALY":137.2683,"EPHEMERIS_TYPE":0,"NORAD_CAT_ID":54255,"ELEMENT_SET_NO":999,"REV_AT_EPOCH":20507,"BSTAR":0.00056770709,"MEAN_MOTION_DOT":0.00050546,"MEAN_MOTION_DDOT":0},{"OBJECT_NAME":"JILIN-1 GAOFEN 03D50","OBJECT_ID":"2022-167J","EPOCH":"2026-07-21T14:47:49.125984","CLASSIFICATION_TYPE":"U","MEAN_MOTION":15.35148824,"ECCENTRICITY":0.0004651,"INCLINATION":97.6864,"RA_OF_ASC_NODE":11.8894,"ARG_OF_PERICENTER":359.6473,"MEAN_ANOMALY":0.4766,"EPHEMERIS_TYPE":0,"NORAD_CAT_ID":54690,"ELEMENT_SET_NO":999,"REV_AT_EPOCH":20063,"BSTAR":0.00030144095,"MEAN_MOTION_DOT":0.00010203,"MEAN_MOTION_DDOT":0},{"OBJECT_NAME":"JILIN-1 GAOFEN 03D47","OBJECT_ID":"2022-167L","EPOCH":"2026-07-21T14:57:45.513216","CLASSIFICATION_TYPE":"U","MEAN_MOTION":15.34425102,"ECCENTRICITY":0.00072456,"INCLINATION":97.6961,"RA_OF_ASC_NODE":13.6356,"ARG_OF_PERICENTER":7.856,"MEAN_ANOMALY":352.2794,"EPHEMERIS_TYPE":0,"NORAD_CAT_ID":54692,"ELEMENT_SET_NO":999,"REV_AT_EPOCH":20062,"BSTAR":0.00026902489,"MEAN_MOTION_DOT":0.00008892,"MEAN_MOTION_DDOT":0},{"OBJECT_NAME":"JILIN-1 GAOFEN 03D49","OBJECT_ID":"2022-167N","EPOCH":"2026-07-21T14:57:59.123808","CLASSIFICATION_TYPE":"U","MEAN_MOTION":15.38141056,"ECCENTRICITY":0.00055387,"INCLINATION":97.6838,"RA_OF_ASC_NODE":14.3196,"ARG_OF_PERICENTER":29.4095,"MEAN_ANOMALY":330.746,"EPHEMERIS_TYPE":0,"NORAD_CAT_ID":54694,"ELEMENT_SET_NO":999,"REV_AT_EPOCH":20078,"BSTAR":0.00028525559,"MEAN_MOTION_DOT":0.00010631,"MEAN_MOTION_DDOT":0},{"OBJECT_NAME":"JILIN-1 GAOFEN 03D48","OBJECT_ID":"2022-167P","EPOCH":"2026-07-21T14:32:40.185888","CLASSIFICATION_TYPE":"U","MEAN_MOTION":15.35882349,"ECCENTRICITY":0.00058494,"INCLINATION":97.691,"RA_OF_ASC_NODE":13.6104,"ARG_OF_PERICENTER":8.138,"MEAN_ANOMALY":351.9956,"EPHEMERIS_TYPE":0,"NORAD_CAT_ID":54695,"ELEMENT_SET_NO":999,"REV_AT_EPOCH":20067,"BSTAR":0.00029344987,"MEAN_MOTION_DOT":0.00010169,"MEAN_MOTION_DDOT":0},{"OBJECT_NAME":"JILIN GAOFEN OBJECT A","OBJECT_ID":"2026-080A","EPOCH":"2026-07-21T15:09:09.839232","CLASSIFICATION_TYPE":"U","MEAN_MOTION":15.09236821,"ECCENTRICITY":0.0010825,"INCLINATION":97.6606,"RA_OF_ASC_NODE":278.1015,"ARG_OF_PERICENTER":310.5331,"MEAN_ANOMALY":49.4954,"EPHEMERIS_TYPE":0,"NORAD_CAT_ID":68691,"ELEMENT_SET_NO":999,"REV_AT_EPOCH":1485,"BSTAR":0.00029114,"MEAN_MOTION_DOT":0.00004573,"MEAN_MOTION_DDOT":0},{"OBJECT_NAME":"JILIN GAOFEN OBJECT B","OBJECT_ID":"2026-080B","EPOCH":"2026-07-21T13:09:35.667936","CLASSIFICATION_TYPE":"U","MEAN_MOTION":15.08939015,"ECCENTRICITY":0.00154804,"INCLINATION":97.6583,"RA_OF_ASC_NODE":278.0277,"ARG_OF_PERICENTER":289.805,"MEAN_ANOMALY":70.1509,"EPHEMERIS_TYPE":0,"NORAD_CAT_ID":68692,"ELEMENT_SET_NO":999,"REV_AT_EPOCH":1484,"BSTAR":0.00028032429,"MEAN_MOTION_DOT":0.00004371,"MEAN_MOTION_DDOT":0},{"OBJECT_NAME":"JILIN GAOFEN OBJECT D","OBJECT_ID":"2026-080D","EPOCH":"2026-07-21T14:45:55.020096","CLASSIFICATION_TYPE":"U","MEAN_MOTION":15.08998241,"ECCENTRICITY":0.00160772,"INCLINATION":97.6647,"RA_OF_ASC_NODE":278.1742,"ARG_OF_PERICENTER":301.7143,"MEAN_ANOMALY":58.2518,"EPHEMERIS_TYPE":0,"NORAD_CAT_ID":68694,"ELEMENT_SET_NO":999,"REV_AT_EPOCH":1483,"BSTAR":0.0002796548,"MEAN_MOTION_DOT":0.00004368,"MEAN_MOTION_DDOT":0},{"OBJECT_NAME":"JILIN GAOFEN OBJECT E","OBJECT_ID":"2026-080E","EPOCH":"2026-07-21T14:19:46.848864","CLASSIFICATION_TYPE":"U","MEAN_MOTION":15.08958238,"ECCENTRICITY":0.00132749,"INCLINATION":97.6627,"RA_OF_ASC_NODE":278.1746,"ARG_OF_PERICENTER":312.7393,"MEAN_ANOMALY":47.2718,"EPHEMERIS_TYPE":0,"NORAD_CAT_ID":68695,"ELEMENT_SET_NO":999,"REV_AT_EPOCH":1481,"BSTAR":0.00024929452,"MEAN_MOTION_DOT":0.00003879,"MEAN_MOTION_DDOT":0},{"OBJECT_NAME":"JILIN GAOFEN OBJECT F","OBJECT_ID":"2026-080F","EPOCH":"2026-07-21T14:18:28.213632","CLASSIFICATION_TYPE":"U","MEAN_MOTION":15.08942148,"ECCENTRICITY":0.00119471,"INCLINATION":97.6598,"RA_OF_ASC_NODE":278.1395,"ARG_OF_PERICENTER":315.6216,"MEAN_ANOMALY":44.4054,"EPHEMERIS_TYPE":0,"NORAD_CAT_ID":68696,"ELEMENT_SET_NO":999,"REV_AT_EPOCH":1481,"BSTAR":0.00024857854,"MEAN_MOTION_DOT":0.00003864,"MEAN_MOTION_DDOT":0},{"OBJECT_NAME":"JILIN GAOFEN OBJECT G","OBJECT_ID":"2026-080G","EPOCH":"2026-07-21T15:33:58.035168","CLASSIFICATION_TYPE":"U","MEAN_MOTION":15.08932187,"ECCENTRICITY":0.00142622,"INCLINATION":97.6639,"RA_OF_ASC_NODE":278.2798,"ARG_OF_PERICENTER":311.2662,"MEAN_ANOMALY":48.7337,"EPHEMERIS_TYPE":0,"NORAD_CAT_ID":68697,"ELEMENT_SET_NO":999,"REV_AT_EPOCH":1482,"BSTAR":0.00025449902,"MEAN_MOTION_DOT":0.00003959,"MEAN_MOTION_DDOT":0},{"OBJECT_NAME":"JILIN GAOFEN OBJECT H","OBJECT_ID":"2026-080H","EPOCH":"2026-07-21T15:30:52.554240","CLASSIFICATION_TYPE":"U","MEAN_MOTION":15.08960795,"ECCENTRICITY":0.0014572,"INCLINATION":97.6623,"RA_OF_ASC_NODE":278.2673,"ARG_OF_PERICENTER":313.2069,"MEAN_ANOMALY":46.7941,"EPHEMERIS_TYPE":0,"NORAD_CAT_ID":68698,"ELEMENT_SET_NO":999,"REV_AT_EPOCH":1482,"BSTAR":0.0002327,"MEAN_MOTION_DOT":0.00003618,"MEAN_MOTION_DDOT":0}]}
